     2.11           N: GPS NAV DATA                         RINEX VERSION / TYPE
teqc  2019Feb25                         20221121 12:25:35UTCPGM / RUN BY / DATE
OSX ker:10.11.6|Core i5|gcc 4.3 -m64|OSX ker:10.10+|=+      COMMENT
    4.6566D-09  1.4901D-08 -5.9605D-08 -5.9605D-08          ION ALPHA
    7.9872D+04  6.5536D+04 -6.5536D+04 -3.9322D+05          ION BETA
    3.725290298462D-09 1.243449787580D-14   147456     1542 DELTA-UTC: A0,A1,T,W
                                                            END OF HEADER
 8 09  7 26 12  0  0.0-2.136938273907D-04-1.705302565824D-12 0.000000000000D+00
    1.790000000000D+02 3.840625000000D+01 4.090170372014D-09-3.301079912371D-02
    1.719221472740D-06 1.076970354188D-02 7.301568984985D-06 5.153631273270D+03
    4.320000000000D+04 1.657754182816D-07 1.681337677709D+00 1.862645149231D-09
    9.891229106538D-01 2.533125000000D+02 3.001365164826D+00-8.064264480413D-09
    2.442958901901D-10 1.000000000000D+00 1.542000000000D+03 0.000000000000D+00
    2.800000000000D+00 0.000000000000D+00-3.725290298462D-09 1.790000000000D+02
    3.601800000000D+04 4.000000000000D+00
 3 09  7 26 12  0  0.0 4.251771606505D-04 5.115907697473D-12 0.000000000000D+00
    7.000000000000D+01-4.718750000000D+01 4.976278710554D-09 2.064374502947D+00
   -2.568587660789D-06 1.213841070421D-02 1.079589128494D-05 5.153650526047D+03
    4.320000000000D+04-1.359730958939D-07-2.684633685426D+00-2.104789018631D-07
    9.267075151906D-01 1.545937500000D+02 9.167252410117D-01-8.236414508296D-09
   -1.503634060966D-10 1.000000000000D+00 1.542000000000D+03 0.000000000000D+00
    2.000000000000D+00 0.000000000000D+00-4.190951585770D-09 7.000000000000D+01
    3.601800000000D+04 4.000000000000D+00
 9 09  7 26 11 59 44.0 6.858631968498D-05 2.046363078989D-12 0.000000000000D+00
    5.900000000000D+01 3.350000000000D+01 4.460542942375D-09-2.801190315563D-01
    1.935288310051D-06 2.074267412536D-02 7.787719368935D-06 5.153628351212D+03
    4.318400000000D+04-1.899898052216D-07 1.586117220606D+00 8.568167686462D-08
    9.768014962974D-01 2.401875000000D+02 1.497727764385D+00-8.444280309598D-09
    3.232277494475D-10 1.000000000000D+00 1.542000000000D+03 0.000000000000D+00
    2.000000000000D+00 0.000000000000D+00-5.587935447693D-09 5.900000000000D+01
    3.604800000000D+04 4.000000000000D+00
27 09  7 26 11 59 44.0 6.886618211865D-05 3.296918293927D-12 0.000000000000D+00
    8.000000000000D+00 4.225000000000D+01 4.279106813403D-09 3.053100442003D+00
    2.330169081688D-06 2.130720857531D-02 7.726252079010D-06 5.153764320374D+03
    4.318400000000D+04 4.936009645462D-07 1.561891945286D+00-5.401670932770D-08
    9.748538417755D-01 2.295000000000D+02-1.567526975528D+00-7.736393680421D-09
    2.746542975968D-10 1.000000000000D+00 1.542000000000D+03 0.000000000000D+00
    2.000000000000D+00 0.000000000000D+00-4.190951585770D-09 8.000000000000D+00
    4.129800000000D+04 4.000000000000D+00
14 09  7 26 11 59 44.0-7.439963519573D-05 5.570655048359D-12 0.000000000000D+00
    9.000000000000D+00-1.759375000000D+01 3.795158083568D-09 2.898808549526D+00
   -9.369105100632D-07 4.665859043598D-03 1.050904393196D-05 5.153633100510D+03
    4.318400000000D+04-4.470348358154D-08 6.112823353229D-01-1.136213541031D-07
    9.883228729404D-01 1.899375000000D+02-2.169656212787D+00-7.613531419858D-09
   -1.939366496685D-10 1.000000000000D+00 1.542000000000D+03 0.000000000000D+00
    2.000000000000D+00 0.000000000000D+00-9.313225746155D-09 9.000000000000D+00
    4.135800000000D+04 4.000000000000D+00
26 09  7 26 11 59 44.0 6.477441638708D-05 0.000000000000D+00 0.000000000000D+00
    2.000000000000D+00-2.262500000000D+01 3.913377293587D-09 4.014397875442D-01
   -8.866190910339D-07 2.026577829383D-02 1.017749309540D-05 5.154909936905D+03
    4.318400000000D+04-2.309679985046D-07 6.286603669820D-01 1.545995473862D-07
    9.926672159112D-01 2.043750000000D+02 1.027018154789D+00-7.983546832485D-09
   -2.825117677491D-10 1.000000000000D+00 1.542000000000D+03 0.000000000000D+00
    2.000000000000D+00 0.000000000000D+00-6.519258022308D-09 2.000000000000D+00
    4.171800000000D+04 4.000000000000D+00
15 09  7 26 14  0  0.0-3.107809461653D-04-2.273736754432D-12 0.000000000000D+00
    4.800000000000D+01-3.637500000000D+01 4.631978654789D-09-2.159236608026D+00
   -1.834705471992D-06 1.505495281890D-03 1.068972051144D-05 5.153643024445D+03
    5.040000000000D+04-4.097819328308D-08 5.568883874023D-01-2.048909664154D-08
    9.562883068464D-01 1.730625000000D+02-4.822285387771D-01-8.071050477363D-09
   -1.714357124141D-10 1.000000000000D+00 1.542000000000D+03 0.000000000000D+00
    2.000000000000D+00 0.000000000000D+00-9.778887033463D-09 4.800000000000D+01
    4.321800000000D+04 4.000000000000D+00
26 09  7 26 13 59 44.0 6.477441638708D-05 0.000000000000D+00 0.000000000000D+00
    1.300000000000D+01-4.568750000000D+01 3.791943663960D-09 1.450690152691D+00
   -2.307817339897D-06 2.026795968413D-02 1.123920083046D-05 5.154917701721D+03
    5.038400000000D+04-4.693865776062D-07 6.286024149452D-01-7.636845111847D-08
    9.926655862204D-01 1.874375000000D+02 1.027187001867D+00-7.840683738807D-09
   -1.807218135032D-10 1.000000000000D+00 1.542000000000D+03 0.000000000000D+00
    2.000000000000D+00 0.000000000000D+00-6.519258022308D-09 1.300000000000D+01
    4.321800000000D+04 4.000000000000D+00
 9 09  7 26 14  0  0.0 6.860122084618D-05 2.046363078989D-12 0.000000000000D+00
    6.000000000000D+01 3.150000000000D+01 4.460900100109D-09 7.724093307033D-01
    1.650303602219D-06 2.074426144827D-02 8.588656783104D-06 5.153631458282D+03
    5.040000000000D+04-2.831220626831D-07 1.586056393935D+00-1.676380634308D-08
    9.768036380095D-01 2.288750000000D+02 1.497740207966D+00-8.409636009381D-09
    3.028697585983D-10 1.000000000000D+00 1.542000000000D+03 0.000000000000D+00
    2.000000000000D+00 0.000000000000D+00-5.587935447693D-09 6.000000000000D+01
    4.321800000000D+04 4.000000000000D+00
22 09  7 26 14  0  0.0 1.946790143847D-04-9.094947017729D-13 0.000000000000D+00
    3.700000000000D+01-7.937500000000D+00 5.355580224270D-09-1.528502383505D+00
   -2.421438694000D-07 5.216695717536D-03 3.954395651817D-06 5.153653928757D+03
    5.040000000000D+04 8.754432201386D-08-4.411534227594D-01 1.359730958939D-07
    9.392499033228D-01 2.889375000000D+02-1.896246506827D+00-8.604286974518D-09
   -7.678891285216D-11 1.000000000000D+00 1.542000000000D+03 0.000000000000D+00
    2.000000000000D+00 0.000000000000D+00-1.769512891769D-08 3.700000000000D+01
    4.321800000000D+04 4.000000000000D+00
27 09  7 26 13 59 44.0 6.888946518302D-05 3.296918293927D-12 0.000000000000D+00
    9.000000000000D+00 5.109375000000D+01 4.274463762859D-09-2.179995058619D+00
    2.818182110786D-06 2.130784653127D-02 7.830560207367D-06 5.153762702942D+03
    5.038400000000D+04 2.849847078323D-07 1.561835394725D+00 2.179294824600D-07
    9.748570821390D-01 2.292500000000D+02-1.567492340942D+00-7.672105288266D-09
    4.968064082668D-10 1.000000000000D+00 1.542000000000D+03 0.000000000000D+00
    2.000000000000D+00 0.000000000000D+00-4.190951585770D-09 9.000000000000D+00
    4.321800000000D+04 4.000000000000D+00
14 09  7 26 13 59 44.0-7.436005398631D-05 5.570655048359D-12 0.000000000000D+00
    1.000000000000D+01-3.003125000000D+01 3.888376252193D-09-2.334198508920D+00
   -1.510605216026D-06 4.667680361308D-03 1.017935574055D-05 5.153629764557D+03
    5.038400000000D+04 9.685754776001D-08 6.112266127733D-01-2.235174179077D-08
    9.883217933069D-01 1.966875000000D+02-2.169631660633D+00-7.666033606785D-09
   -6.750281176306D-11 1.000000000000D+00 1.542000000000D+03 0.000000000000D+00
    2.000000000000D+00 0.000000000000D+00-9.313225746155D-09 1.000000000000D+01
    4.321800000000D+04 4.000000000000D+00
28 09  7 26 14  0  0.0-2.605654299259D-05-1.136868377216D-13 0.000000000000D+00
    1.660000000000D+02-5.468750000000D+01 4.681266422108D-09-1.288481485923D+00
   -2.825632691383D-06 1.496265968308D-02 5.327165126801D-06 5.153644634247D+03
    5.040000000000D+04 2.291053533554D-07 2.697510660478D+00 3.036111593246D-07
    9.674342987103D-01 2.795000000000D+02-2.020904161399D+00-8.256415341411D-09
   -3.728726745007D-10 1.000000000000D+00 1.542000000000D+03 0.000000000000D+00
    4.000000000000D+00 0.000000000000D+00-1.071020960808D-08 1.660000000000D+02
    4.321800000000D+04 4.000000000000D+00
11 09  7 26 14  0  0.0-1.226784661412D-05-1.591615728103D-12 0.000000000000D+00
    3.400000000000D+01 7.050000000000D+01 6.079538951486D-09 1.558087404457D+00
    3.658235073090D-06 9.554239455611D-03 8.841976523399D-06 5.153696733475D+03
    5.040000000000D+04-1.788139343262D-07-1.739405062666D+00 5.029141902924D-08
    8.889121196035D-01 1.707187500000D+02 7.066668060233D-01-8.924657462092D-09
    2.192948487964D-10 1.000000000000D+00 1.542000000000D+03 0.000000000000D+00
    2.000000000000D+00 0.000000000000D+00-1.164153218269D-08 3.400000000000D+01
    4.324800000000D+04 4.000000000000D+00
17 09  7 26 14  0  0.0 7.296307012439D-05 2.614797267597D-12 0.000000000000D+00
    8.600000000000D+01-2.290625000000D+01 4.199460638678D-09-1.829135400340D+00
   -1.125037670136D-06 4.585273098201D-03 1.164898276329D-05 5.153715745926D+03
    5.040000000000D+04-7.450580596924D-09-2.551710691461D+00-1.117587089539D-07
    9.599896622113D-01 1.569375000000D+02-2.631709832661D+00-7.743536835105D-09
   -1.535778257043D-10 1.000000000000D+00 1.542000000000D+03 0.000000000000D+00
    2.800000000000D+00 0.000000000000D+00-1.024454832077D-08 8.600000000000D+01
    4.351800000000D+04 4.000000000000D+00
